ARIANE 5 R/B            
1 28499U 04049H   25300.02341152  .00001410  00000+0  16232-3 0  9999
2 28499  98.2507  98.6427 0085887  64.6339 296.3737 14.84871931125953
CZ-2D R/B               
1 28738U 05024B   25300.28845606  .00028077  00000+0  49934-3 0  9993
2 28738  97.3686 306.6139 0007350 134.1590 226.0267 15.50102571119053
ALOS (DAICHI)           
1 28931U 06002A   25300.25325162  .00002424  00000+0  41944-3 0  9993
2 28931  98.1015 252.0950 0001798  56.4445 303.6932 14.69253679 53887
H-2A R/B                
1 28932U 06002B   25300.25454183  .00009482  00000+0  51635-3 0  9999
2 28932  98.2288  71.2662 0055410 335.4273  24.4317 15.13339602 74239
RESURS-DK 1             
1 29228U 06021A   25300.18910476  .00003853  00000+0  23133-3 0  9991
2 29228  69.9336 222.1011 0006868 298.7590  61.2885 15.11780410 67346
CZ-4B R/B               
1 29507U 06046C   25300.15527715  .00005371  00000+0  28545-3 0  9994
2 29507  97.5799 340.4228 0034802  12.6025 347.6069 15.15193907 39814
CZ-2C R/B               
1 31114U 07010B   25300.21972596  .00000229  00000+0  12468-3 0  9995
2 31114  98.3945  55.2198 0058297 323.1968  36.5214 14.20182347960775
COSMO-SKYMED 1          
1 31598U 07023A   25300.28711243  .00003550  00000+0  32771-3 0  9991
2 31598  97.8875 125.3948 0001367  81.4050 278.7325 14.95277169994950
COSMOS 2428             
1 31792U 07029A   25300.22414921 -.00000232  00000+0 -98966-4 0  9995
2 31792  70.9366 123.5354 0001737 126.1913 233.9368 14.12894374945240
SL-16 R/B               
1 31793U 07029B   25300.17223968 -.00000105  00000+0 -29816-4 0  9996
2 31793  70.9734  93.0414 0002567 263.2703 269.7603 14.14804216946484
KORONAS-FOTON           
1 33504U 09003A   25300.04906082  .00015773  00000+0  39802-3 0  9993
2 33504  82.4329  54.4186 0010680 277.6185  82.3847 15.39655695925152
CZ-2C R/B               
1 37731U 11030B   25300.32413188  .00002348  00000+0  30477-3 0  9996
2 37731  97.8337 255.4868 0054648  65.0413  92.7095 14.80652442770354
