CCSDS_OMM_VERS = 2.0
CREATION_DATE  = 
ORIGINATOR     = 

OBJECT_NAME    = ARIANE 5 R/B
OBJECT_ID      = 2004-049H
CENTER_NAME    = EARTH
REF_FRAME      = TEME
TIME_SYSTEM    = UTC
MEAN_ELEMENT_THEORY = SGP/SGP4

EPOCH          = 2025-10-27T00:33:42.755328
MEAN_MOTION    = 14.84871931
ECCENTRICITY   = .00858874
INCLINATION    = 98.2507
RA_OF_ASC_NODE = 98.6427
ARG_OF_PERICENTER = 64.6339
MEAN_ANOMALY   = 296.3737

EPHEMERIS_TYPE = 0
CLASSIFICATION_TYPE = U
NORAD_CAT_ID   = 28499
ELEMENT_SET_NO = 999
REV_AT_EPOCH   = 12595
BSTAR          = .16232393E-3
MEAN_MOTION_DOT = .141E-4
MEAN_MOTION_DDOT = 0

CCSDS_OMM_VERS = 2.0
CREATION_DATE  = 
ORIGINATOR     = 

OBJECT_NAME    = CZ-2D R/B
OBJECT_ID      = 2005-024B
CENTER_NAME    = EARTH
REF_FRAME      = TEME
TIME_SYSTEM    = UTC
MEAN_ELEMENT_THEORY = SGP/SGP4

EPOCH          = 2025-10-27T06:55:22.603584
MEAN_MOTION    = 15.50102571
ECCENTRICITY   = .00073509
INCLINATION    = 97.3686
RA_OF_ASC_NODE = 306.6139
ARG_OF_PERICENTER = 134.1590
MEAN_ANOMALY   = 226.0267

EPHEMERIS_TYPE = 0
CLASSIFICATION_TYPE = U
NORAD_CAT_ID   = 28738
ELEMENT_SET_NO = 999
REV_AT_EPOCH   = 11905
BSTAR          = .49933979E-3
MEAN_MOTION_DOT = .28077E-3
MEAN_MOTION_DDOT = 0

CCSDS_OMM_VERS = 2.0
CREATION_DATE  = 
ORIGINATOR     = 

OBJECT_NAME    = ALOS (DAICHI)
OBJECT_ID      = 2006-002A
CENTER_NAME    = EARTH
REF_FRAME      = TEME
TIME_SYSTEM    = UTC
MEAN_ELEMENT_THEORY = SGP/SGP4

EPOCH          = 2025-10-27T06:04:40.939968
MEAN_MOTION    = 14.69253679
ECCENTRICITY   = .00017987
INCLINATION    = 98.1015
RA_OF_ASC_NODE = 252.0950
ARG_OF_PERICENTER = 56.4445
MEAN_ANOMALY   = 303.6932

EPHEMERIS_TYPE = 0
CLASSIFICATION_TYPE = U
NORAD_CAT_ID   = 28931
ELEMENT_SET_NO = 999
REV_AT_EPOCH   = 5388
BSTAR          = .4194425E-3
MEAN_MOTION_DOT = .2424E-4
MEAN_MOTION_DDOT = 0

CCSDS_OMM_VERS = 2.0
CREATION_DATE  = 
ORIGINATOR     = 

OBJECT_NAME    = H-2A R/B
OBJECT_ID      = 2006-002B
CENTER_NAME    = EARTH
REF_FRAME      = TEME
TIME_SYSTEM    = UTC
MEAN_ELEMENT_THEORY = SGP/SGP4

EPOCH          = 2025-10-27T06:06:32.414112
MEAN_MOTION    = 15.13339602
ECCENTRICITY   = .00554102
INCLINATION    = 98.2288
RA_OF_ASC_NODE = 71.2662
ARG_OF_PERICENTER = 335.4273
MEAN_ANOMALY   = 24.4317

EPHEMERIS_TYPE = 0
CLASSIFICATION_TYPE = U
NORAD_CAT_ID   = 28932
ELEMENT_SET_NO = 999
REV_AT_EPOCH   = 7423
BSTAR          = .51634531E-3
MEAN_MOTION_DOT = .9482E-4
MEAN_MOTION_DDOT = 0

CCSDS_OMM_VERS = 2.0
CREATION_DATE  = 
ORIGINATOR     = 

OBJECT_NAME    = RESURS-DK 1
OBJECT_ID      = 2006-021A
CENTER_NAME    = EARTH
REF_FRAME      = TEME
TIME_SYSTEM    = UTC
MEAN_ELEMENT_THEORY = SGP/SGP4

EPOCH          = 2025-10-27T04:32:18.651264
MEAN_MOTION    = 15.11780410
ECCENTRICITY   = .00068689
INCLINATION    = 69.9336
RA_OF_ASC_NODE = 222.1011
ARG_OF_PERICENTER = 298.7590
MEAN_ANOMALY   = 61.2885

EPHEMERIS_TYPE = 0
CLASSIFICATION_TYPE = U
NORAD_CAT_ID   = 29228
ELEMENT_SET_NO = 999
REV_AT_EPOCH   = 6734
BSTAR          = .23133054E-3
MEAN_MOTION_DOT = .3853E-4
MEAN_MOTION_DDOT = 0

CCSDS_OMM_VERS = 2.0
CREATION_DATE  = 
ORIGINATOR     = 

OBJECT_NAME    = CZ-4B R/B
OBJECT_ID      = 2006-046C
CENTER_NAME    = EARTH
REF_FRAME      = TEME
TIME_SYSTEM    = UTC
MEAN_ELEMENT_THEORY = SGP/SGP4

EPOCH          = 2025-10-27T03:43:35.945760
MEAN_MOTION    = 15.15193907
ECCENTRICITY   = .00348029
INCLINATION    = 97.5799
RA_OF_ASC_NODE = 340.4228
ARG_OF_PERICENTER = 12.6025
MEAN_ANOMALY   = 347.6069

EPHEMERIS_TYPE = 0
CLASSIFICATION_TYPE = U
NORAD_CAT_ID   = 29507
ELEMENT_SET_NO = 999
REV_AT_EPOCH   = 3981
BSTAR          = .28544684E-3
MEAN_MOTION_DOT = .5371E-4
MEAN_MOTION_DDOT = 0

CCSDS_OMM_VERS = 2.0
CREATION_DATE  = 
ORIGINATOR     = 

OBJECT_NAME    = CZ-2C R/B
OBJECT_ID      = 2007-010B
CENTER_NAME    = EARTH
REF_FRAME      = TEME
TIME_SYSTEM    = UTC
MEAN_ELEMENT_THEORY = SGP/SGP4

EPOCH          = 2025-10-27T05:16:24.322944
MEAN_MOTION    = 14.20182347
ECCENTRICITY   = .00582979
INCLINATION    = 98.3945
RA_OF_ASC_NODE = 55.2198
ARG_OF_PERICENTER = 323.1968
MEAN_ANOMALY   = 36.5214

EPHEMERIS_TYPE = 0
CLASSIFICATION_TYPE = U
NORAD_CAT_ID   = 31114
ELEMENT_SET_NO = 999
REV_AT_EPOCH   = 96077
BSTAR          = .12467685E-3
MEAN_MOTION_DOT = .229E-5
MEAN_MOTION_DDOT = 0

CCSDS_OMM_VERS = 2.0
CREATION_DATE  = 
ORIGINATOR     = 

OBJECT_NAME    = COSMO-SKYMED 1
OBJECT_ID      = 2007-023A
CENTER_NAME    = EARTH
REF_FRAME      = TEME
TIME_SYSTEM    = UTC
MEAN_ELEMENT_THEORY = SGP/SGP4

EPOCH          = 2025-10-27T06:53:26.513952
MEAN_MOTION    = 14.95277169
ECCENTRICITY   = .00013673
INCLINATION    = 97.8875
RA_OF_ASC_NODE = 125.3948
ARG_OF_PERICENTER = 81.4050
MEAN_ANOMALY   = 278.7325

EPHEMERIS_TYPE = 0
CLASSIFICATION_TYPE = U
NORAD_CAT_ID   = 31598
ELEMENT_SET_NO = 999
REV_AT_EPOCH   = 99495
BSTAR          = .32771418E-3
MEAN_MOTION_DOT = .355E-4
MEAN_MOTION_DDOT = 0

CCSDS_OMM_VERS = 2.0
CREATION_DATE  = 
ORIGINATOR     = 

OBJECT_NAME    = COSMOS 2428
OBJECT_ID      = 2007-029A
CENTER_NAME    = EARTH
REF_FRAME      = TEME
TIME_SYSTEM    = UTC
MEAN_ELEMENT_THEORY = SGP/SGP4

EPOCH          = 2025-10-27T05:22:46.491744
MEAN_MOTION    = 14.12894374
ECCENTRICITY   = .00017373
INCLINATION    = 70.9366
RA_OF_ASC_NODE = 123.5354
ARG_OF_PERICENTER = 126.1913
MEAN_ANOMALY   = 233.9368

EPHEMERIS_TYPE = 0
CLASSIFICATION_TYPE = U
NORAD_CAT_ID   = 31792
ELEMENT_SET_NO = 999
REV_AT_EPOCH   = 94524
BSTAR          = -.98965843E-4
MEAN_MOTION_DOT = -.232E-5
MEAN_MOTION_DDOT = 0

CCSDS_OMM_VERS = 2.0
CREATION_DATE  = 
ORIGINATOR     = 

OBJECT_NAME    = SL-16 R/B
OBJECT_ID      = 2007-029B
CENTER_NAME    = EARTH
REF_FRAME      = TEME
TIME_SYSTEM    = UTC
MEAN_ELEMENT_THEORY = SGP/SGP4

EPOCH          = 2025-10-27T04:08:01.508352
MEAN_MOTION    = 14.14804216
ECCENTRICITY   = .00025672
INCLINATION    = 70.9734
RA_OF_ASC_NODE = 93.0414
ARG_OF_PERICENTER = 263.2703
MEAN_ANOMALY   = 269.7603

EPHEMERIS_TYPE = 0
CLASSIFICATION_TYPE = U
NORAD_CAT_ID   = 31793
ELEMENT_SET_NO = 999
REV_AT_EPOCH   = 94648
BSTAR          = -.29816131E-4
MEAN_MOTION_DOT = -.105E-5
MEAN_MOTION_DDOT = 0

CCSDS_OMM_VERS = 2.0
CREATION_DATE  = 
ORIGINATOR     = 

OBJECT_NAME    = KORONAS-FOTON
OBJECT_ID      = 2009-003A
CENTER_NAME    = EARTH
REF_FRAME      = TEME
TIME_SYSTEM    = UTC
MEAN_ELEMENT_THEORY = SGP/SGP4

EPOCH          = 2025-10-27T01:10:38.854848
MEAN_MOTION    = 15.39655695
ECCENTRICITY   = .001068
INCLINATION    = 82.4329
RA_OF_ASC_NODE = 54.4186
ARG_OF_PERICENTER = 277.6185
MEAN_ANOMALY   = 82.3847

EPHEMERIS_TYPE = 0
CLASSIFICATION_TYPE = U
NORAD_CAT_ID   = 33504
ELEMENT_SET_NO = 999
REV_AT_EPOCH   = 92515
BSTAR          = .39801739E-3
MEAN_MOTION_DOT = .15773E-3
MEAN_MOTION_DDOT = 0

CCSDS_OMM_VERS = 2.0
CREATION_DATE  = 
ORIGINATOR     = 

OBJECT_NAME    = CZ-2C R/B
OBJECT_ID      = 2011-030B
CENTER_NAME    = EARTH
REF_FRAME      = TEME
TIME_SYSTEM    = UTC
MEAN_ELEMENT_THEORY = SGP/SGP4

EPOCH          = 2025-10-27T07:46:44.994432
MEAN_MOTION    = 14.80652442
ECCENTRICITY   = .00546488
INCLINATION    = 97.8337
RA_OF_ASC_NODE = 255.4868
ARG_OF_PERICENTER = 65.0413
MEAN_ANOMALY   = 92.7095

EPHEMERIS_TYPE = 0
CLASSIFICATION_TYPE = U
NORAD_CAT_ID   = 37731
ELEMENT_SET_NO = 999
REV_AT_EPOCH   = 77035
BSTAR          = .30477143E-3
MEAN_MOTION_DOT = .2348E-4
MEAN_MOTION_DDOT = 0

